CCSDS_OMM_VERS,COMMENT,CREATION_DATE,ORIGINATOR,OBJECT_NAME,OBJECT_ID,CENTER_NAME,REF_FRAME,TIME_SYSTEM,MEAN_ELEMENT_THEORY,EPOCH,MEAN_MOTION,ECCENTRICITY,INCLINATION,RA_OF_ASC_NODE,ARG_OF_PERICENTER,MEAN_ANOMALY,EPHEMERIS_TYPE,CLASSIFICATION_TYPE,NORAD_CAT_ID,ELEMENT_SET_NO,REV_AT_EPOCH,BSTAR,MEAN_MOTION_DOT,MEAN_MOTION_DDOT,SEMIMAJOR_AXIS,PERIOD,APOAPSIS,PERIAPSIS,OBJECT_TYPE,RCS_SIZE,COUNTRY_CODE,LAUNCH_DATE,SITE,DECAY_DATE,FILE,GP_ID,TLE_LINE0,TLE_LINE1,TLE_LINE2
2.0,GENERATED VIA SPACE-TRACK.ORG API,2022-08-20T15:06:12,18 SPCS,STARLINK-1032,2019-074AA,EARTH,TEME,UTC,SGP4,2022-08-20T10:13:01.500384,15.06394675,0.0001371,53.0542,270.269,90.3919,269.7227,0,U,44737,999,15311,2.2902e-05,6e-07,0.0,6925.365,95.592,548.179,546.28,PAYLOAD,LARGE,US,2019-11-11,AFETR,,3541233,210559794,0 STARLINK-1032,1 44737U 19074AA  22232.42571181  .00000060  00000-0  22902-4 0  9991,2 44737  53.0542 270.2690 0001371  90.3919 269.7227 15.06394675153117
2.0,GENERATED VIA SPACE-TRACK.ORG API,2022-08-20T14:16:12,18 SPCS,STARLINK-1483,2020-038P,EARTH,TEME,UTC,SGP4,2022-08-20T10:12:59.010336,15.06390371,0.0001681,53.0544,300.2009,65.05,295.0664,0,U,45743,999,12163,-0.00012657,-2.166e-05,0.0,6925.378,95.593,548.407,546.079,PAYLOAD,LARGE,US,2020-06-13,AFETR,,3541078,210556997,0 STARLINK-1483,1 45743U 20038P   22232.42568299 -.00002166  00000-0 -12657-3 0  9993,2 45743  53.0544 300.2009 0001681  65.0500 295.0664 15.06390371121632
2.0,GENERATED VIA SPACE-TRACK.ORG API,2022-08-20T14:16:12,18 SPCS,PEGASUS R/B,1998-071B,EARTH,TEME,UTC,SGP4,2022-08-20T10:12:27.783648,14.92647659,0.0008942,69.9132,238.4558,229.0389,130.9993,0,U,25561,999,28690,9.1792e-05,8.58e-06,0.0,6967.821,96.473,595.916,583.455,ROCKET BODY,LARGE,US,1998-12-06,WRAS,,3541078,210556990,0 PEGASUS R/B,1 25561U 98071B   22232.42532157  .00000858  00000-0  91792-4 0  9997,2 25561  69.9132 238.4558 0008942 229.0389 130.9993 14.92647659286904
2.0,GENERATED VIA SPACE-TRACK.ORG API,2022-08-20T15:06:12,18 SPCS,STARLINK-2392,2021-018AA,EARTH,TEME,UTC,SGP4,2022-08-20T10:12:21.437568,15.06389791,0.0001357,53.0545,295.2722,87.8763,272.2381,0,U,47811,999,8100,-0.00015582,-2.601e-05,0.0,6925.38,95.593,548.185,546.305,PAYLOAD,LARGE,US,2021-03-11,AFETR,,3541238,210559881,0 STARLINK-2392,1 47811U 21018AA  22232.42524812 -.00002601  00000-0 -15582-3 0  9997,2 47811  53.0545 295.2722 0001357  87.8763 272.2381 15.06389791 81002
2.0,GENERATED VIA SPACE-TRACK.ORG API,2022-08-20T15:06:12,18 SPCS,STARLINK-1065,2019-074BK,EARTH,TEME,UTC,SGP4,2022-08-20T10:12:18.260640,15.18166447,2.57e-05,52.9969,269.8321,73.8171,286.285,0,U,44770,999,15308,0.00083708,0.00017037,0.0,6889.519,94.851,511.561,511.207,PAYLOAD,LARGE,US,2019-11-11,AFETR,,3541237,210560377,0 STARLINK-1065,1 44770U 19074BK  22232.42521135  .00017037  00000-0  83708-3 0  9994,2 44770  52.9969 269.8321 0000257  73.8171 286.2850 15.18166447153087
2.0,GENERATED VIA SPACE-TRACK.ORG API,2022-08-20T15:06:12,18 SPCS,HXMT,2017-034A,EARTH,TEME,UTC,SGP4,2022-08-20T10:11:37.125600,15.10737566,0.0010282,43.0183,356.4304,317.8768,148.7248,0,U,42758,999,28585,0.00016052,2.488e-05,0.0,6912.086,95.318,541.058,526.844,PAYLOAD,LARGE,PRC,2017-06-15,JSC,,3541262,210560690,0 HXMT,1 42758U 17034A   22232.42473525  .00002488  00000-0  16052-3 0  9993,2 42758  43.0183 356.4304 0010282 317.8768 148.7248 15.10737566285858
2.0,GENERATED VIA SPACE-TRACK.ORG API,2022-08-20T14:56:12,18 SPCS,STARLINK-2421,2021-027G,EARTH,TEME,UTC,SGP4,2022-08-20T10:11:01.403520,15.06402071,0.0001634,53.0525,225.2805,68.6233,291.493,0,U,48098,999,7668,5.3838e-05,5.2e-06,0.0,6925.342,95.592,548.339,546.076,PAYLOAD,LARGE,US,2021-04-07,AFETR,,3541204,210558974,0 STARLINK-2421,1 48098U 21027G   22232.42432180  .00000520  00000-0  53838-4 0  9994,2 48098  53.0525 225.2805 0001634  68.6233 291.4930 15.06402071 76688
2.0,GENERATED VIA SPACE-TRACK.ORG API,2022-08-20T14:46:13,18 SPCS,CARTOSAT 2E,2017-036C,EARTH,TEME,UTC,SGP4,2022-08-20T10:09:51.231168,15.19207457,0.0008344,97.4495,292.0791,145.6382,342.1548,0,U,42767,999,28607,0.00016117,3.327e-05,0.0,6886.372,94.786,513.983,502.491,PAYLOAD,LARGE,IND,2017-06-23,SRI,,3541167,210558647,0 CARTOSAT 2E,1 42767U 17036C   22232.42350962  .00003327  00000-0  16117-3 0  9999,2 42767  97.4495 292.0791 0008344 145.6382 342.1548 15.19207457286075
2.0,GENERATED VIA SPACE-TRACK.ORG API,2022-08-20T14:56:12,18 SPCS,STARLINK-2436,2021-027K,EARTH,TEME,UTC,SGP4,2022-08-20T10:09:42.306048,15.06349429,0.0001711,53.0531,225.2858,74.0691,286.0486,0,U,48101,999,7663,0.00066782,9.666e-05,0.0,6925.504,95.595,548.554,546.184,PAYLOAD,LARGE,US,2021-04-07,AFETR,,3541196,210559360,0 STARLINK-2436,1 48101U 21027K   22232.42340632  .00009666  00000-0  66782-3 0  9990,2 48101  53.0531 225.2858 0001711  74.0691 286.0486 15.06349429 76631
2.0,GENERATED VIA SPACE-TRACK.ORG API,2022-08-20T14:26:12,18 SPCS,STARLINK-2736,2021-044C,EARTH,TEME,UTC,SGP4,2022-08-20T10:09:05.698368,15.06389537,0.0001389,53.0542,180.5608,65.0048,295.1085,0,U,48640,999,6908,-5.8009e-05,-1.145e-05,0.0,6925.381,95.593,548.208,546.284,PAYLOAD,LARGE,US,2021-05-26,AFETR,,3541102,210557411,0 STARLINK-2736,1 48640U 21044C   22232.42298262 -.00001145  00000-0 -58009-4 0  9998,2 48640  53.0542 180.5608 0001389  65.0048 295.1085 15.06389537 69085
2.0,GENERATED VIA SPACE-TRACK.ORG API,2022-08-20T15:06:12,18 SPCS,STARLINK-1466,2020-038C,EARTH,TEME,UTC,SGP4,2022-08-20T10:09:03.587616,15.06387285,0.0001284,53.0555,300.278,79.3652,280.7482,0,U,45732,999,12178,-8.4792e-05,-1.544e-05,0.0,6925.388,95.593,548.142,546.363,PAYLOAD,LARGE,US,2020-06-13,AFETR,,3541219,210559581,0 STARLINK-1466,1 45732U 20038C   22232.42295819 -.00001544  00000-0 -84792-4 0  9995,2 45732  53.0555 300.2780 0001284  79.3652 280.7482 15.06387285121788
2.0,GENERATED VIA SPACE-TRACK.ORG API,2022-08-20T15:06:12,18 SPCS,BREEZE-KM R/B,2017-064B,EARTH,TEME,UTC,SGP4,2022-08-20T10:08:25.963008,14.96111107,0.0242087,98.7965,43.0089,326.4904,32.1194,0,U,42970,999,26451,0.00010002,1.938e-05,0.0,6957.063,96.25,747.35,410.507,ROCKET BODY,LARGE,CIS,2017-10-13,PKMTR,,3541223,210559645,0 BREEZE-KM R/B,1 42970U 17064B   22232.42252272  .00001938  00000-0  10002-3 0  9994,2 42970  98.7965  43.0089 0242087 326.4904  32.1194 14.96111107264512
2.0,GENERATED VIA SPACE-TRACK.ORG API,2022-08-20T14:46:13,18 SPCS,STARLINK-3060,2021-082AB,EARTH,TEME,UTC,SGP4,2022-08-20T10:08:16.881504,14.97273489,0.0003634,69.9985,284.9434,259.8914,100.1835,0,U,49155,999,5373,0.00045354,5.178e-05,0.0,6953.462,96.175,577.854,572.8,PAYLOAD,LARGE,US,2021-09-14,AFWTR,,3541163,210558049,0 STARLINK-3060,1 49155U 21082AB  22232.42241761  .00005178  00000-0  45354-3 0  9990,2 49155  69.9985 284.9434 0003634 259.8914 100.1835 14.97273489 53730
2.0,GENERATED VIA SPACE-TRACK.ORG API,2022-08-20T15:06:12,18 SPCS,STARLINK-1035,2019-074AD,EARTH,TEME,UTC,SGP4,2022-08-20T10:07:43.360032,15.06390659,0.0001604,53.0533,270.2926,41.0109,319.1,0,U,44740,999,15311,0.00011492,1.43e-05,0.0,6925.377,95.593,548.353,546.131,PAYLOAD,LARGE,US,2019-11-11,AFETR,,3541233,210560300,0 STARLINK-1035,1 44740U 19074AD  22232.42202963  .00001430  00000-0  11492-3 0  9997,2 44740  53.0533 270.2926 0001604  41.0109 319.1000 15.06390659153113
2.0,GENERATED VIA SPACE-TRACK.ORG API,2022-08-20T14:26:12,18 SPCS,STARLINK-3081,2021-082Y,EARTH,TEME,UTC,SGP4,2022-08-20T10:07:35.025024,14.96717502,0.0003269,69.9984,285.0155,254.6002,105.4795,0,U,49152,999,5378,-8.451e-05,-1.059e-05,0.0,6955.184,96.211,579.323,574.775,PAYLOAD,LARGE,US,2021-09-14,AFWTR,,3541103,210557417,0 STARLINK-3081,1 49152U 21082Y   22232.42193316 -.00001059  00000-0 -84510-4 0  9993,2 49152  69.9984 285.0155 0003269 254.6002 105.4795 14.96717502 53789
2.0,GENERATED VIA SPACE-TRACK.ORG API,2022-08-20T15:06:12,18 SPCS,CFOSAT,2018-083A,EARTH,TEME,UTC,SGP4,2022-08-20T10:07:34.702752,15.16364156,0.0001807,97.4199,253.6447,96.4124,13.7969,0,U,43662,999,21085,0.00010092,1.893e-05,0.0,6894.977,94.964,518.088,515.596,PAYLOAD,LARGE,PRC,2018-10-29,JSC,,3541217,210560035,0 CFOSAT,1 43662U 18083A   22232.42192943  .00001893  00000-0  10092-3 0  9992,2 43662  97.4199 253.6447 0001807  96.4124  13.7969 15.16364156210854
2.0,GENERATED VIA SPACE-TRACK.ORG API,2022-08-20T15:06:12,18 SPCS,STARLINK-2334,2021-018F,EARTH,TEME,UTC,SGP4,2022-08-20T10:07:03.949536,15.06386835,0.0001249,53.0552,295.2923,62.8594,297.2523,0,U,47792,999,8100,-6.8622e-05,-1.303e-05,0.0,6925.389,95.593,548.119,546.389,PAYLOAD,LARGE,US,2021-03-11,AFETR,,3541228,210560229,0 STARLINK-2334,1 47792U 21018F   22232.42157349 -.00001303  00000-0 -68622-4 0  9994,2 47792  53.0552 295.2923 0001249  62.8594 297.2523 15.06386835 81007
2.0,GENERATED VIA SPACE-TRACK.ORG API,2022-08-20T15:06:12,18 SPCS,STARLINK-1391,2020-038W,EARTH,TEME,UTC,SGP4,2022-08-20T10:06:23.193792,15.06389527,0.0001443,53.0537,280.2864,82.676,277.4393,0,U,45750,999,12206,-0.00013646,-2.313e-05,0.0,6925.381,95.593,548.245,546.246,PAYLOAD,LARGE,US,2020-06-13,AFETR,,3541218,210560068,0 STARLINK-1391,1 45750U 20038W   22232.42110178 -.00002313  00000-0 -13646-3 0  9993,2 45750  53.0537 280.2864 0001443  82.6760 277.4393 15.06389527122069
2.0,GENERATED VIA SPACE-TRACK.ORG API,2022-08-20T14:56:12,18 SPCS,YZ-1S DEB,2018-077C,EARTH,TEME,UTC,SGP4,2022-08-20T10:05:24.692352,14.60967451,0.0009168,98.1023,286.9965,159.0032,201.1547,0,U,43644,999,20594,0.00021651,1.016e-05,0.0,7068.189,98.565,696.534,683.574,DEBRIS,LARGE,PRC,2018-10-09,JSC,,3541198,210559388,0 YZ-1S DEB,1 43644U 18077C   22232.42042468  .00001016  00000-0  21651-3 0  9991,2 43644  98.1023 286.9965 0009168 159.0032 201.1547 14.60967451205948
2.0,GENERATED VIA SPACE-TRACK.ORG API,2022-08-20T14:16:12,18 SPCS,STARLINK-3150,2021-104AW,EARTH,TEME,UTC,SGP4,2022-08-20T10:05:21.875712,15.08826972,0.0001545,53.2169,282.7891,61.6781,298.4367,0,U,49452,999,4401,-4.2945e-05,-9.71e-06,0.0,6917.92,95.438,540.854,538.716,PAYLOAD,LARGE,US,2021-11-13,AFETR,,3541088,210556906,0 STARLINK-3150,1 49452U 21104AW  22232.42039208 -.00000971  00000-0 -42945-4 0  9998,2 49452  53.2169 282.7891 0001545  61.6781 298.4367 15.08826972 44019
